[{"OBJECT_NAME":"SAUDISAT 5A","OBJECT_ID":"2018-102A","EPOCH":"2026-03-09T23:40:00.596928","MEAN_MOTION":15.26941021,"ECCENTRICITY":0.00113651,"INCLINATION":97.3185,"RA_OF_ASC_NODE":132.4981,"ARG_OF_PERICENTER":121.7113,"MEAN_ANOMALY":238.5235,"EPHEMERIS_TYPE":0,"CLASSIFICATION_TYPE":"U","NORAD_CAT_ID":43831,"ELEMENT_SET_NO":999,"REV_AT_EPOCH":40053,"BSTAR":0.00030305233,"MEAN_MOTION_DOT":7.96e-5,"MEAN_MOTION_DDOT":0},{"OBJECT_NAME":"STARLINK-35676","OBJECT_ID":"2026-003M","EPOCH":"2026-03-09T11:27:27.535392","MEAN_MOTION":15.27573613,"ECCENTRICITY":0.0001337,"INCLINATION":43,"RA_OF_ASC_NODE":228.067,"ARG_OF_PERICENTER":268.6448,"MEAN_ANOMALY":91.425,"EPHEMERIS_TYPE":0,"CLASSIFICATION_TYPE":"U","NORAD_CAT_ID":67345,"ELEMENT_SET_NO":999,"REV_AT_EPOCH":879,"BSTAR":0.00043947376,"MEAN_MOTION_DOT":0.00011848,"MEAN_MOTION_DDOT":0}]
